{
    "links": {
        "self": "http://www.neowsapp.com/rest/v1/neo/3647994?api_key=iIulBulltgU6a56xZRHN4H3l9WmuAYTsLGpBGhQ2"
    },
    "id": "3647994",
    "neo_reference_id": "3647994",
    "name": "(2013 PK67)",
    "designation": "2013 PK67",
    "nasa_jpl_url": "http://ssd.jpl.nasa.gov/sbdb.cgi?sstr=3647994",
    "absolute_magnitude_h": 22.3,
    "estimated_diameter": {
        "kilometers": {
            "estimated_diameter_min": 0.0921626549,
            "estimated_diameter_max": 0.2060819612
        },
        "meters": {
            "estimated_diameter_min": 92.1626548503,
            "estimated_diameter_max": 206.0819612321
        },
        "miles": {
            "estimated_diameter_min": 0.057267201,
            "estimated_diameter_max": 0.1280533543
        },
        "feet": {
            "estimated_diameter_min": 302.370924539,
            "estimated_diameter_max": 676.1219416887
        }
    },
    "is_potentially_hazardous_asteroid": false,
    "close_approach_data": [
        {
            "close_approach_date": "2013-09-20",
            "close_approach_date_full": "2013-Sep-20 13:39",
            "epoch_date_close_approach": 1379684340000,
            "relative_velocity": {
                "kilometers_per_second": "2.8978961459",
                "kilometers_per_hour": "10432.4261251668",
                "miles_per_hour": "6482.3038887182"
            },
            "miss_distance": {
                "astronomical": "0.276291875",
                "lunar": "107.477539375",
                "kilometers": "41332675.99830625",
                "miles": "25682933.93187625"
            },
            "orbiting_body": "Earth"
        },
        {
            "close_approach_date": "2041-03-11",
            "close_approach_date_full": "2041-Mar-11 15:35",
            "epoch_date_close_approach": 2246628900000,
            "relative_velocity": {
                "kilometers_per_second": "6.8916195922",
                "kilometers_per_hour": "24809.8305317935",
                "miles_per_hour": "15415.8638657136"
            },
            "miss_distance": {
                "astronomical": "0.0385627191",
                "lunar": "15.0008977299",
                "kilometers": "5768900.638768317",
                "miles": "3584628.6354920946"
            },
            "orbiting_body": "Mars"
        }
    ],
    "orbital_data": {
        "orbit_id": "9",
        "orbit_determination_date": "2017-04-06 08:45:06",
        "first_observation_date": "2013-08-15",
        "last_observation_date": "2013-10-31",
        "data_arc_in_days": 77,
        "observations_used": 28,
        "orbit_uncertainty": "5",
        "minimum_orbit_intersection": ".27166",
        "jupiter_tisserand_invariant": "3.461",
        "epoch_osculation": "2459000.5",
        "eccentricity": ".4444480653424277",
        "semi_major_axis": "2.284169577058122",
        "inclination": "4.663829044799128",
        "ascending_node_longitude": "320.7438976283859",
        "orbital_period": "1260.929894261721",
        "perihelion_distance": "1.268974827620609",
        "perihelion_argument": "40.27833081184588",
        "aphelion_distance": "3.299364326495636",
        "perihelion_time": "2459080.057986644557",
        "mean_anomaly": "337.2859099285533",
        "mean_motion": ".2855035808400604",
        "equinox": "J2000",
        "orbit_class": {
            "orbit_class_type": "AMO",
            "orbit_class_description": "Near-Earth asteroid orbits similar to that of 1221 Amor",
            "orbit_class_range": "1.017 AU < q (perihelion) < 1.3 AU"
        }
    },
    "is_sentry_object": false
}